IRIDIUM 63              
1 25286U 98021B   25062.78641976  .00000642  00000+0  21247-3 0  9996
2 25286  86.3989 126.3607 0002069  96.5421 263.6012 14.36405250408717
IRIDIUM 69              
1 25319U 98026A   25062.70476264  .00000979  00000+0  29983-3 0  9994
2 25319  86.4013 139.9938 0003361  53.2244 306.9264 14.40796688407878
IRIDIUM 71              
1 25320U 98026B   25062.72607037  .00000841  00000+0  25569-3 0  9996
2 25320  86.4000 134.6983 0004280  85.2995 274.8693 14.41007446408404
IRIDIUM 73              
1 25344U 98032C   25062.59462734  .00001137  00000+0  27961-3 0  9994
2 25344  86.4360  91.6782 0002375  75.1870 284.9599 14.51472149415548
IRIDIUM 82              
1 25467U 98051A   25062.80257020  .00024634  00000+0  84779-3 0  9992
2 25467  86.3754 161.2778 0095566 335.7293  23.9464 15.25568679407850
